ONEWEB-0412             
1 50489U 21132W   25230.50895365  .00000103  00000+0  22958-3 0  9990
2 50489  87.9141  35.5694 0002099  86.7441 273.3931 13.18685744181768
ONEWEB-0413             
1 50490U 21132X   25230.51389044  .00000058  00000+0  11419-3 0  9994
2 50490  87.9144  35.5841 0001970  82.9815 277.1541 13.18683543181705
ONEWEB-0414             
1 50491U 21132Y   25230.49905338  .00000070  00000+0  14432-3 0  9994
2 50491  87.9140  35.5471 0002058  92.6627 267.4741 13.18685887181738
ONEWEB-0417             
1 50492U 21132Z   25230.50730520  .00000059  00000+0  11744-3 0  9996
2 50492  87.9145  35.5775 0001809  99.7751 260.3586 13.18685898181719
ONEWEB-0418             
1 50493U 21132AA  25230.51706736 -.00003117  00000+0 -79453-2 0  9990
2 50493  87.9144  35.5616 0001792 106.2929 253.8401 13.18661405181772
ONEWEB-0419             
1 50494U 21132AB  25230.53532539  .00000022  00000+0  22435-4 0  9991
2 50494  87.9140  35.5596 0001610 102.0942 258.0371 13.18688056181699
ONEWEB-0420             
1 50495U 21132AC  25230.50069973  .00000109  00000+0  24314-3 0  9999
2 50495  87.9143  35.5766 0001779  81.2002 278.9332 13.18685983181686
ONEWEB-0421             
1 50496U 21132AD  25230.41823142  .00000097  00000+0  21437-3 0  9995
2 50496  87.9143  35.5863 0002102  91.6487 268.4886 13.18685406181710
ONEWEB-0424             
1 50497U 21132AE  25230.45449855  .00000067  00000+0  13730-3 0  9999
2 50497  87.9144  35.5733 0001415 100.1251 260.0041 13.18687685181744
ONEWEB-0426             
1 50498U 21132AF  25230.49080471  .00000079  00000+0  16770-3 0  9999
2 50498  87.9140  35.5593 0002488 101.5874 258.5537 13.18686269181695
ONEWEB-0427             
1 50499U 21132AG  25230.45284829  .00000036  00000+0  59063-4 0  9995
2 50499  87.9141  35.5561 0001817  99.6036 260.5302 13.18687646181710
ONEWEB-0429             
1 50500U 21132AH  25230.51554299 -.00000009  00000+0 -56304-4 0  9993
2 50500  87.9143  35.5730 0001734  87.7617 272.3714 13.18686068181696
ONEWEB-0430             
1 50501U 21132AJ  25230.50400113  .00000045  00000+0  81550-4 0  9997
2 50501  87.9144  35.5695 0001531  90.4789 269.6518 13.18686075181738
ONEWEB-0432             
1 50502U 21132AK  25230.45966719  .00000096  00000+0  21197-3 0  9997
2 50502  87.9136  35.5583 0001592 123.8267 236.3017 13.18689134181683
ONEWEB-0440             
1 50503U 21132AL  25230.52379317  .00000089  00000+0  19250-3 0  9997
2 50503  87.9145  35.5546 0002112  84.4054 275.7319 13.18687913181683
ONEWEB-0450             
1 50504U 21132AM  25230.51734839  .00000086  00000+0  18458-3 0  9997
2 50504  87.9143  35.5818 0001633  83.4270 276.7048 13.18686337181713
ONEWEB-0410             
1 51622U 22012A   25230.53571129  .00000068  00000+0  14261-3 0  9998
2 51622  87.9032  66.0632 0002695 117.7742 242.3663 13.17649649173840
