[{"OBJECT_NAME":"ONEWEB-0412","OBJECT_ID":"2021-132W","EPOCH":"2025-08-18T12:12:53.595360","MEAN_MOTION":13.18685744,"ECCENTRICITY":0.0002099,"INCLINATION":87.9141,"RA_OF_ASC_NODE":35.5694,"ARG_OF_PERICENTER":86.7441,"MEAN_ANOMALY":273.3931,"EPHEMERIS_TYPE":0,"CLASSIFICATION_TYPE":"U","NORAD_CAT_ID":50489,"ELEMENT_SET_NO":999,"REV_AT_EPOCH":18176,"BSTAR":0.00022958,"MEAN_MOTION_DOT":1.03e-6,"MEAN_MOTION_DDOT":0},{"OBJECT_NAME":"ONEWEB-0413","OBJECT_ID":"2021-132X","EPOCH":"2025-08-18T12:20:00.134016","MEAN_MOTION":13.18683543,"ECCENTRICITY":0.000197,"INCLINATION":87.9144,"RA_OF_ASC_NODE":35.5841,"ARG_OF_PERICENTER":82.9815,"MEAN_ANOMALY":277.1541,"EPHEMERIS_TYPE":0,"CLASSIFICATION_TYPE":"U","NORAD_CAT_ID":50490,"ELEMENT_SET_NO":999,"REV_AT_EPOCH":18170,"BSTAR":0.00011419,"MEAN_MOTION_DOT":5.8e-7,"MEAN_MOTION_DDOT":0},{"OBJECT_NAME":"ONEWEB-0414","OBJECT_ID":"2021-132Y","EPOCH":"2025-08-18T11:58:38.212032","MEAN_MOTION":13.18685887,"ECCENTRICITY":0.0002058,"INCLINATION":87.914,"RA_OF_ASC_NODE":35.5471,"ARG_OF_PERICENTER":92.6627,"MEAN_ANOMALY":267.4741,"EPHEMERIS_TYPE":0,"CLASSIFICATION_TYPE":"U","NORAD_CAT_ID":50491,"ELEMENT_SET_NO":999,"REV_AT_EPOCH":18173,"BSTAR":0.00014432,"MEAN_MOTION_DOT":7.0e-7,"MEAN_MOTION_DDOT":0},{"OBJECT_NAME":"ONEWEB-0417","OBJECT_ID":"2021-132Z","EPOCH":"2025-08-18T12:10:31.169280","MEAN_MOTION":13.18685898,"ECCENTRICITY":0.0001809,"INCLINATION":87.9145,"RA_OF_ASC_NODE":35.5775,"ARG_OF_PERICENTER":99.7751,"MEAN_ANOMALY":260.3586,"EPHEMERIS_TYPE":0,"CLASSIFICATION_TYPE":"U","NORAD_CAT_ID":50492,"ELEMENT_SET_NO":999,"REV_AT_EPOCH":18171,"BSTAR":0.00011744,"MEAN_MOTION_DOT":5.9e-7,"MEAN_MOTION_DDOT":0},{"OBJECT_NAME":"ONEWEB-0418","OBJECT_ID":"2021-132AA","EPOCH":"2025-08-18T12:24:34.619904","MEAN_MOTION":13.18661405,"ECCENTRICITY":0.0001792,"INCLINATION":87.9144,"RA_OF_ASC_NODE":35.5616,"ARG_OF_PERICENTER":106.2929,"MEAN_ANOMALY":253.8401,"EPHEMERIS_TYPE":0,"CLASSIFICATION_TYPE":"U","NORAD_CAT_ID":50493,"ELEMENT_SET_NO":999,"REV_AT_EPOCH":18177,"BSTAR":-0.0079453,"MEAN_MOTION_DOT":-3.117e-5,"MEAN_MOTION_DDOT":0},{"OBJECT_NAME":"ONEWEB-0419","OBJECT_ID":"2021-132AB","EPOCH":"2025-08-18T12:50:52.113696","MEAN_MOTION":13.18688056,"ECCENTRICITY":0.000161,"INCLINATION":87.914,"RA_OF_ASC_NODE":35.5596,"ARG_OF_PERICENTER":102.0942,"MEAN_ANOMALY":258.0371,"EPHEMERIS_TYPE":0,"CLASSIFICATION_TYPE":"U","NORAD_CAT_ID":50494,"ELEMENT_SET_NO":999,"REV_AT_EPOCH":18169,"BSTAR":2.2435e-5,"MEAN_MOTION_DOT":2.2e-7,"MEAN_MOTION_DDOT":0},{"OBJECT_NAME":"ONEWEB-0420","OBJECT_ID":"2021-132AC","EPOCH":"2025-08-18T12:01:00.456672","MEAN_MOTION":13.18685983,"ECCENTRICITY":0.0001779,"INCLINATION":87.9143,"RA_OF_ASC_NODE":35.5766,"ARG_OF_PERICENTER":81.2002,"MEAN_ANOMALY":278.9332,"EPHEMERIS_TYPE":0,"CLASSIFICATION_TYPE":"U","NORAD_CAT_ID":50495,"ELEMENT_SET_NO":999,"REV_AT_EPOCH":18168,"BSTAR":0.00024314,"MEAN_MOTION_DOT":1.09e-6,"MEAN_MOTION_DDOT":0},{"OBJECT_NAME":"ONEWEB-0421","OBJECT_ID":"2021-132AD","EPOCH":"2025-08-18T10:02:15.194688","MEAN_MOTION":13.18685406,"ECCENTRICITY":0.0002102,"INCLINATION":87.9143,"RA_OF_ASC_NODE":35.5863,"ARG_OF_PERICENTER":91.6487,"MEAN_ANOMALY":268.4886,"EPHEMERIS_TYPE":0,"CLASSIFICATION_TYPE":"U","NORAD_CAT_ID":50496,"ELEMENT_SET_NO":999,"REV_AT_EPOCH":18171,"BSTAR":0.00021437,"MEAN_MOTION_DOT":9.7e-7,"MEAN_MOTION_DDOT":0},{"OBJECT_NAME":"ONEWEB-0424","OBJECT_ID":"2021-132AE","EPOCH":"2025-08-18T10:54:28.674720","MEAN_MOTION":13.18687685,"ECCENTRICITY":0.0001415,"INCLINATION":87.9144,"RA_OF_ASC_NODE":35.5733,"ARG_OF_PERICENTER":100.1251,"MEAN_ANOMALY":260.0041,"EPHEMERIS_TYPE":0,"CLASSIFICATION_TYPE":"U","NORAD_CAT_ID":50497,"ELEMENT_SET_NO":999,"REV_AT_EPOCH":18174,"BSTAR":0.0001373,"MEAN_MOTION_DOT":6.7e-7,"MEAN_MOTION_DDOT":0},{"OBJECT_NAME":"ONEWEB-0426","OBJECT_ID":"2021-132AF","EPOCH":"2025-08-18T11:46:45.526944","MEAN_MOTION":13.18686269,"ECCENTRICITY":0.0002488,"INCLINATION":87.914,"RA_OF_ASC_NODE":35.5593,"ARG_OF_PERICENTER":101.5874,"MEAN_ANOMALY":258.5537,"EPHEMERIS_TYPE":0,"CLASSIFICATION_TYPE":"U","NORAD_CAT_ID":50498,"ELEMENT_SET_NO":999,"REV_AT_EPOCH":18169,"BSTAR":0.0001677,"MEAN_MOTION_DOT":7.9e-7,"MEAN_MOTION_DDOT":0},{"OBJECT_NAME":"ONEWEB-0427","OBJECT_ID":"2021-132AG","EPOCH":"2025-08-18T10:52:06.092256","MEAN_MOTION":13.18687646,"ECCENTRICITY":0.0001817,"INCLINATION":87.9141,"RA_OF_ASC_NODE":35.5561,"ARG_OF_PERICENTER":99.6036,"MEAN_ANOMALY":260.5302,"EPHEMERIS_TYPE":0,"CLASSIFICATION_TYPE":"U","NORAD_CAT_ID":50499,"ELEMENT_SET_NO":999,"REV_AT_EPOCH":18171,"BSTAR":5.9063e-5,"MEAN_MOTION_DOT":3.6e-7,"MEAN_MOTION_DDOT":0},{"OBJECT_NAME":"ONEWEB-0429","OBJECT_ID":"2021-132AH","EPOCH":"2025-08-18T12:22:22.914336","MEAN_MOTION":13.18686068,"ECCENTRICITY":0.0001734,"INCLINATION":87.9143,"RA_OF_ASC_NODE":35.573,"ARG_OF_PERICENTER":87.7617,"MEAN_ANOMALY":272.3714,"EPHEMERIS_TYPE":0,"CLASSIFICATION_TYPE":"U","NORAD_CAT_ID":50500,"ELEMENT_SET_NO":999,"REV_AT_EPOCH":18169,"BSTAR":-5.6304e-5,"MEAN_MOTION_DOT":-9.0e-8,"MEAN_MOTION_DDOT":0},{"OBJECT_NAME":"ONEWEB-0430","OBJECT_ID":"2021-132AJ","EPOCH":"2025-08-18T12:05:45.697632","MEAN_MOTION":13.18686075,"ECCENTRICITY":0.0001531,"INCLINATION":87.9144,"RA_OF_ASC_NODE":35.5695,"ARG_OF_PERICENTER":90.4789,"MEAN_ANOMALY":269.6518,"EPHEMERIS_TYPE":0,"CLASSIFICATION_TYPE":"U","NORAD_CAT_ID":50501,"ELEMENT_SET_NO":999,"REV_AT_EPOCH":18173,"BSTAR":8.155e-5,"MEAN_MOTION_DOT":4.5e-7,"MEAN_MOTION_DDOT":0},{"OBJECT_NAME":"ONEWEB-0432","OBJECT_ID":"2021-132AK","EPOCH":"2025-08-18T11:01:55.245216","MEAN_MOTION":13.18689134,"ECCENTRICITY":0.0001592,"INCLINATION":87.9136,"RA_OF_ASC_NODE":35.5583,"ARG_OF_PERICENTER":123.8267,"MEAN_ANOMALY":236.3017,"EPHEMERIS_TYPE":0,"CLASSIFICATION_TYPE":"U","NORAD_CAT_ID":50502,"ELEMENT_SET_NO":999,"REV_AT_EPOCH":18168,"BSTAR":0.00021197,"MEAN_MOTION_DOT":9.6e-7,"MEAN_MOTION_DDOT":0},{"OBJECT_NAME":"ONEWEB-0440","OBJECT_ID":"2021-132AL","EPOCH":"2025-08-18T12:34:15.729888","MEAN_MOTION":13.18687913,"ECCENTRICITY":0.0002112,"INCLINATION":87.9145,"RA_OF_ASC_NODE":35.5546,"ARG_OF_PERICENTER":84.4054,"MEAN_ANOMALY":275.7319,"EPHEMERIS_TYPE":0,"CLASSIFICATION_TYPE":"U","NORAD_CAT_ID":50503,"ELEMENT_SET_NO":999,"REV_AT_EPOCH":18168,"BSTAR":0.0001925,"MEAN_MOTION_DOT":8.9e-7,"MEAN_MOTION_DDOT":0},{"OBJECT_NAME":"ONEWEB-0450","OBJECT_ID":"2021-132AM","EPOCH":"2025-08-18T12:24:58.900896","MEAN_MOTION":13.18686337,"ECCENTRICITY":0.0001633,"INCLINATION":87.9143,"RA_OF_ASC_NODE":35.5818,"ARG_OF_PERICENTER":83.427,"MEAN_ANOMALY":276.7048,"EPHEMERIS_TYPE":0,"CLASSIFICATION_TYPE":"U","NORAD_CAT_ID":50504,"ELEMENT_SET_NO":999,"REV_AT_EPOCH":18171,"BSTAR":0.00018458,"MEAN_MOTION_DOT":8.6e-7,"MEAN_MOTION_DDOT":0},{"OBJECT_NAME":"ONEWEB-0410","OBJECT_ID":"2022-012A","EPOCH":"2025-08-18T12:51:25.455456","MEAN_MOTION":13.17649649,"ECCENTRICITY":0.0002695,"INCLINATION":87.9032,"RA_OF_ASC_NODE":66.0632,"ARG_OF_PERICENTER":117.7742,"MEAN_ANOMALY":242.3663,"EPHEMERIS_TYPE":0,"CLASSIFICATION_TYPE":"U","NORAD_CAT_ID":51622,"ELEMENT_SET_NO":999,"REV_AT_EPOCH":17384,"BSTAR":0.00014261,"MEAN_MOTION_DOT":6.8e-7,"MEAN_MOTION_DDOT":0}]
